{
  "type": "FeatureCollection",
  "features": [
    {
      "type": "Feature",
      "properties": {
        "norad_id": 33972,
        "name": "COSMOS 2251 DEB",
        "group": "cosmos-2251-debris",
        "lat": 66.61399917206276,
        "lon": -154.58420199359935,
        "alt_km": 784.9095781312844,
        "timestamp": "2025-12-27T07:26:25.613770+00:00",
        "meta_object_name": "COSMOS 2251 DEB",
        "meta_object_id": "1993-036FF",
        "meta_epoch": "2025-12-26T21:46:53.946048",
        "meta_mean_motion": 14.36338237,
        "meta_eccentricity": 0.01240795,
        "meta_inclination": 73.9944,
        "meta_ra_of_asc_node": 164.5705,
        "meta_arg_of_pericenter": 329.1123,
        "meta_mean_anomaly": 182.105,
        "meta_ephemeris_type": 0,
        "meta_classification_type": "U",
        "meta_norad_cat_id": 33972,
        "meta_element_set_no": 999,
        "meta_rev_at_epoch": 87277,
        "meta_bstar": 0.0017750967,
        "meta_mean_motion_dot": 5.646e-05,
        "meta_mean_motion_ddot": 0,
        "tle_line1": "1 33972U 93036FF  25360.90756882  .00005646  00000+0  17751-2 0  9999",
        "tle_line2": "2 33972  73.9944 164.5705 0124079 329.1123 182.1050 14.36338237872772"
      },
      "geometry": {
        "type": "Point",
        "coordinates": [
          -154.58420199359935,
          66.61399917206276
        ]
      }
    },
    {
      "type": "Feature",
      "properties": {
        "norad_id": 33973,
        "name": "COSMOS 2251 DEB",
        "group": "cosmos-2251-debris",
        "lat": -56.00221789831306,
        "lon": 50.526883463428454,
        "alt_km": 725.1991701222769,
        "timestamp": "2025-12-27T07:26:25.613782+00:00",
        "meta_object_name": "COSMOS 2251 DEB",
        "meta_object_id": "1993-036FG",
        "meta_epoch": "2025-12-26T15:48:39.068064",
        "meta_mean_motion": 14.45405845,
        "meta_eccentricity": 0.004737,
        "meta_inclination": 74.0087,
        "meta_ra_of_asc_node": 76.9048,
        "meta_arg_of_pericenter": 252.7865,
        "meta_mean_anomaly": 259.9773,
        "meta_ephemeris_type": 0,
        "meta_classification_type": "U",
        "meta_norad_cat_id": 33973,
        "meta_element_set_no": 999,
        "meta_rev_at_epoch": 88801,
        "meta_bstar": 0.00015886,
        "meta_mean_motion_dot": 5.38e-06,
        "meta_mean_motion_ddot": 0,
        "tle_line1": "1 33973U 93036FG  25360.65878551  .00000538  00000+0  15886-3 0  9993",
        "tle_line2": "2 33973  74.0087  76.9048 0047370 252.7865 259.9773 14.45405845888010"
      },
      "geometry": {
        "type": "Point",
        "coordinates": [
          50.526883463428454,
          -56.00221789831306
        ]
      }
    },
    {
      "type": "Feature",
      "properties": {
        "norad_id": 33975,
        "name": "COSMOS 2251 DEB",
        "group": "cosmos-2251-debris",
        "lat": 46.77526560688796,
        "lon": 76.85657953159001,
        "alt_km": 992.5642025906636,
        "timestamp": "2025-12-27T07:26:25.613793+00:00",
        "meta_object_name": "COSMOS 2251 DEB",
        "meta_object_id": "1993-036FJ",
        "meta_epoch": "2025-12-26T20:54:41.011200",
        "meta_mean_motion": 14.00552398,
        "meta_eccentricity": 0.01907448,
        "meta_inclination": 73.8014,
        "meta_ra_of_asc_node": 59.6118,
        "meta_arg_of_pericenter": 190.3061,
        "meta_mean_anomaly": 169.414,
        "meta_ephemeris_type": 0,
        "meta_classification_type": "U",
        "meta_norad_cat_id": 33975,
        "meta_element_set_no": 999,
        "meta_rev_at_epoch": 86027,
        "meta_bstar": 0.00054509436,
        "meta_mean_motion_dot": 9.23e-06,
        "meta_mean_motion_ddot": 0,
        "tle_line1": "1 33975U 93036FJ  25360.87130800  .00000923  00000+0  54509-3 0  9990",
        "tle_line2": "2 33975  73.8014  59.6118 0190744 190.3061 169.4140 14.00552398860272"
      },
      "geometry": {
        "type": "Point",
        "coordinates": [
          76.85657953159001,
          46.77526560688796
        ]
      }
    },
    {
      "type": "Feature",
      "properties": {
        "norad_id": 33980,
        "name": "COSMOS 2251 DEB",
        "group": "cosmos-2251-debris",
        "lat": 50.64799517926151,
        "lon": 52.0775306438745,
        "alt_km": 702.1946138528156,
        "timestamp": "2025-12-27T07:26:25.613803+00:00",
        "meta_object_name": "COSMOS 2251 DEB",
        "meta_object_id": "1993-036FP",
        "meta_epoch": "2025-12-26T12:01:53.267808",
        "meta_mean_motion": 14.58725098,
        "meta_eccentricity": 0.002779,
        "meta_inclination": 74.0208,
        "meta_ra_of_asc_node": 33.1654,
        "meta_arg_of_pericenter": 175.7857,
        "meta_mean_anomaly": 312.9834,
        "meta_ephemeris_type": 0,
        "meta_classification_type": "U",
        "meta_norad_cat_id": 33980,
        "meta_element_set_no": 999,
        "meta_rev_at_epoch": 88995,
        "meta_bstar": 0.00056249,
        "meta_mean_motion_dot": 2.61e-05,
        "meta_mean_motion_ddot": 0,
        "tle_line1": "1 33980U 93036FP  25360.50131097  .00002610  00000+0  56249-3 0  9993",
        "tle_line2": "2 33980  74.0208  33.1654 0027790 175.7857 312.9834 14.58725098889951"
      },
      "geometry": {
        "type": "Point",
        "coordinates": [
          52.0775306438745,
          50.64799517926151
        ]
      }
    },
    {
      "type": "Feature",
      "properties": {
        "norad_id": 33982,
        "name": "COSMOS 2251 DEB",
        "group": "cosmos-2251-debris",
        "lat": -10.296734658510623,
        "lon": -30.797410392092026,
        "alt_km": 646.9721799346644,
        "timestamp": "2025-12-27T07:26:25.613813+00:00",
        "meta_object_name": "COSMOS 2251 DEB",
        "meta_object_id": "1993-036FR",
        "meta_epoch": "2025-12-26T15:50:06.912672",
        "meta_mean_motion": 14.60277835,
        "meta_eccentricity": 0.00755847,
        "meta_inclination": 74.0714,
        "meta_ra_of_asc_node": 333.4148,
        "meta_arg_of_pericenter": 14.0577,
        "meta_mean_anomaly": 158.9029,
        "meta_ephemeris_type": 0,
        "meta_classification_type": "U",
        "meta_norad_cat_id": 33982,
        "meta_element_set_no": 999,
        "meta_rev_at_epoch": 89362,
        "meta_bstar": 0.00063659298,
        "meta_mean_motion_dot": 3.17e-05,
        "meta_mean_motion_ddot": 0,
        "tle_line1": "1 33982U 93036FR  25360.65980223  .00003170  00000+0  63659-3 0  9999",
        "tle_line2": "2 33982  74.0714 333.4148 0075584  14.0577 158.9029 14.60277835893624"
      },
      "geometry": {
        "type": "Point",
        "coordinates": [
          -30.797410392092026,
          -10.296734658510623
        ]
      }
    },
    {
      "type": "Feature",
      "properties": {
        "norad_id": 33983,
        "name": "COSMOS 2251 DEB",
        "group": "cosmos-2251-debris",
        "lat": 36.77432988714739,
        "lon": -72.66218942751138,
        "alt_km": 717.6218694764084,
        "timestamp": "2025-12-27T07:26:25.613823+00:00",
        "meta_object_name": "COSMOS 2251 DEB",
        "meta_object_id": "1993-036FS",
        "meta_epoch": "2025-12-26T18:05:49.407648",
        "meta_mean_motion": 14.50729838,
        "meta_eccentricity": 0.00210675,
        "meta_inclination": 74.0504,
        "meta_ra_of_asc_node": 120.7234,
        "meta_arg_of_pericenter": 222.4007,
        "meta_mean_anomaly": 256.7747,
        "meta_ephemeris_type": 0,
        "meta_classification_type": "U",
        "meta_norad_cat_id": 33983,
        "meta_element_set_no": 999,
        "meta_rev_at_epoch": 88832,
        "meta_bstar": 0.00062995819,
        "meta_mean_motion_dot": 2.457e-05,
        "meta_mean_motion_ddot": 0,
        "tle_line1": "1 33983U 93036FS  25360.75404407  .00002457  00000+0  62996-3 0  9996",
        "tle_line2": "2 33983  74.0504 120.7234 0021067 222.4007 256.7747 14.50729838888324"
      },
      "geometry": {
        "type": "Point",
        "coordinates": [
          -72.66218942751138,
          36.77432988714739
        ]
      }
    },
    {
      "type": "Feature",
      "properties": {
        "norad_id": 33984,
        "name": "COSMOS 2251 DEB",
        "group": "cosmos-2251-debris",
        "lat": -8.280212724318309,
        "lon": -43.42703763365123,
        "alt_km": 690.8758041236852,
        "timestamp": "2025-12-27T07:26:25.613833+00:00",
        "meta_object_name": "COSMOS 2251 DEB",
        "meta_object_id": "1993-036FT",
        "meta_epoch": "2025-12-26T21:44:19.263264",
        "meta_mean_motion": 14.66488804,
        "meta_eccentricity": 0.00223903,
        "meta_inclination": 74.0097,
        "meta_ra_of_asc_node": 319.745,
        "meta_arg_of_pericenter": 153.4681,
        "meta_mean_anomaly": 224.8643,
        "meta_ephemeris_type": 0,
        "meta_classification_type": "U",
        "meta_norad_cat_id": 33984,
        "meta_element_set_no": 999,
        "meta_rev_at_epoch": 89274,
        "meta_bstar": 0.001038197,
        "meta_mean_motion_dot": 5.747e-05,
        "meta_mean_motion_ddot": 0,
        "tle_line1": "1 33984U 93036FT  25360.90577851  .00005747  00000+0  10382-2 0  9994",
        "tle_line2": "2 33984  74.0097 319.7450 0022390 153.4681 224.8643 14.66488804892747"
      },
      "geometry": {
        "type": "Point",
        "coordinates": [
          -43.42703763365123,
          -8.280212724318309
        ]
      }
    }
  ]
}